FENGYUN 1C DEB          
1 31892U 99025CKT 17340.00590048  .00000253  00000-0  88600-4 0  9995
2 31892  99.2181 262.5828 0228224 132.9377 229.1201 14.30836699545088
